{
  "norad_id": 51715,
  "name": "STARLINK-3533",
  "history": [
    {
      "epoch": "2026-04-14T10:33:53.624736Z",
      "apogee_km": 540.5963672918533,
      "perigee_km": 538.9061888277565,
      "latitude_deg": 1.126680356480697e-05,
      "longitude_deg": 167.55157413157107,
      "height_km": 540.5978229397218,
      "semi_major_axis_km": 6917.888278059804,
      "eccentricity": 0.00012216,
      "inclination_deg": 53.2171,
      "raan_deg": 168.6416,
      "arg_perigee_deg": 86.6542,
      "mean_anomaly_deg": 273.459,
      "mean_motion_rev_day": 15.08837419
    },
    {
      "epoch": "2026-04-15T10:24:40.756320Z",
      "apogee_km": 540.5673207013779,
      "perigee_km": 538.9269520149655,
      "latitude_deg": 3.8465350031738226e-05,
      "longitude_deg": 164.41577657395013,
      "height_km": 540.5766529741858,
      "semi_major_axis_km": 6917.884136358171,
      "eccentricity": 0.00011856,
      "inclination_deg": 53.217,
      "raan_deg": 164.1815,
      "arg_perigee_deg": 85.3573,
      "mean_anomaly_deg": 274.7555,
      "mean_motion_rev_day": 15.08838774
    },
    {
      "epoch": "2026-04-16T10:15:27.677088Z",
      "apogee_km": 540.5519696505908,
      "perigee_km": 538.9304190018393,
      "latitude_deg": 3.203822020091783e-05,
      "longitude_deg": 161.28043504834346,
      "height_km": 540.5486755214467,
      "semi_major_axis_km": 6917.878194326215,
      "eccentricity": 0.0001172,
      "inclination_deg": 53.2169,
      "raan_deg": 159.721,
      "arg_perigee_deg": 83.7379,
      "mean_anomaly_deg": 276.3747,
      "mean_motion_rev_day": 15.08840718
    },
    {
      "epoch": "2026-04-17T19:38:33.864000Z",
      "apogee_km": 540.533702970808,
      "perigee_km": 539.0009720857852,
      "latitude_deg": 1.0048931765247833e-05,
      "longitude_deg": 12.887966565224193,
      "height_km": 540.5600677253317,
      "semi_major_axis_km": 6917.904337528296,
      "eccentricity": 0.00011078,
      "inclination_deg": 53.2163,
      "raan_deg": 153.4754,
      "arg_perigee_deg": 82.2598,
      "mean_anomaly_deg": 277.852,
      "mean_motion_rev_day": 15.08832165
    },
    {
      "epoch": "2026-04-18T19:29:21.494112Z",
      "apogee_km": 540.8017214160245,
      "perigee_km": 538.7360347208332,
      "latitude_deg": 4.06586114793304e-05,
      "longitude_deg": 9.74728714761373,
      "height_km": 540.3594662419697,
      "semi_major_axis_km": 6917.905878068429,
      "eccentricity": 0.0001493,
      "inclination_deg": 53.2164,
      "raan_deg": 149.0125,
      "arg_perigee_deg": 72.8293,
      "mean_anomaly_deg": 287.2863,
      "mean_motion_rev_day": 15.08831661
    },
    {
      "epoch": "2026-04-19T19:20:11.005152Z",
      "apogee_km": 540.5517289864929,
      "perigee_km": 539.1280093468185,
      "latitude_deg": -6.142533129101753e-05,
      "longitude_deg": 6.601749191154508,
      "height_km": 540.4466064832799,
      "semi_major_axis_km": 6917.976869166656,
      "eccentricity": 0.0001029,
      "inclination_deg": 53.2169,
      "raan_deg": 144.5527,
      "arg_perigee_deg": 66.0046,
      "mean_anomaly_deg": 294.1053,
      "mean_motion_rev_day": 15.08808436
    },
    {
      "epoch": "2026-04-20T11:13:59.479392Z",
      "apogee_km": 540.5559029194728,
      "perigee_km": 538.9368414950413,
      "latitude_deg": -5.171151190379442e-06,
      "longitude_deg": 124.52565542666427,
      "height_km": 540.4990118096136,
      "semi_major_axis_km": 6917.883372207257,
      "eccentricity": 0.00011702,
      "inclination_deg": 53.2168,
      "raan_deg": 141.5814,
      "arg_perigee_deg": 79.8046,
      "mean_anomaly_deg": 280.3078,
      "mean_motion_rev_day": 15.08839024
    },
    {
      "epoch": "2026-04-21T19:01:42.594240Z",
      "apogee_km": 540.5849120221474,
      "perigee_km": 538.9163175294625,
      "latitude_deg": -8.797824917366314e-06,
      "longitude_deg": 0.3433173083719163,
      "height_km": 540.4990898104473,
      "semi_major_axis_km": 6917.887614775805,
      "eccentricity": 0.0001206,
      "inclination_deg": 53.2169,
      "raan_deg": 135.6345,
      "arg_perigee_deg": 79.8225,
      "mean_anomaly_deg": 280.2903,
      "mean_motion_rev_day": 15.08837636
    },
    {
      "epoch": "2026-04-22T18:52:29.470080Z",
      "apogee_km": 540.5850504496957,
      "perigee_km": 538.9012384225407,
      "latitude_deg": -3.400475031994563e-05,
      "longitude_deg": -2.7921548634145923,
      "height_km": 540.492705523598,
      "semi_major_axis_km": 6917.880144436118,
      "eccentricity": 0.0001217,
      "inclination_deg": 53.2168,
      "raan_deg": 131.1737,
      "arg_perigee_deg": 79.992,
      "mean_anomaly_deg": 280.1209,
      "mean_motion_rev_day": 15.0884008
    }
  ]
}